[{"OBJECT_NAME":"LEMUR-2-ARIANNA","OBJECT_ID":"2025-009CU","EPOCH":"2026-03-28T19:20:45.905568","MEAN_MOTION":15.01210253,"ECCENTRICITY":0.00045948,"INCLINATION":97.6943,"RA_OF_ASC_NODE":169.9352,"ARG_OF_PERICENTER":113.0607,"MEAN_ANOMALY":247.1102,"EPHEMERIS_TYPE":0,"CLASSIFICATION_TYPE":"U","NORAD_CAT_ID":62699,"ELEMENT_SET_NO":999,"REV_AT_EPOCH":6549,"BSTAR":0.00073417937,"MEAN_MOTION_DOT":9.372e-5,"MEAN_MOTION_DDOT":0},{"OBJECT_NAME":"LEMUR-2-ALISIA","OBJECT_ID":"2025-009DB","EPOCH":"2026-03-28T20:47:26.935872","MEAN_MOTION":15.01469655,"ECCENTRICITY":0.00061136,"INCLINATION":97.6964,"RA_OF_ASC_NODE":170.6652,"ARG_OF_PERICENTER":120.0559,"MEAN_ANOMALY":240.1272,"EPHEMERIS_TYPE":0,"CLASSIFICATION_TYPE":"U","NORAD_CAT_ID":62706,"ELEMENT_SET_NO":999,"REV_AT_EPOCH":8810,"BSTAR":0.0007467098,"MEAN_MOTION_DOT":9.601e-5,"MEAN_MOTION_DDOT":0},{"OBJECT_NAME":"LEMUR-2-ROUNDTRIPPER","OBJECT_ID":"2025-009DG","EPOCH":"2026-03-28T17:52:20.460864","MEAN_MOTION":15.02436505,"ECCENTRICITY":0.00058033,"INCLINATION":97.7273,"RA_OF_ASC_NODE":170.6266,"ARG_OF_PERICENTER":73.7312,"MEAN_ANOMALY":286.4551,"EPHEMERIS_TYPE":0,"CLASSIFICATION_TYPE":"U","NORAD_CAT_ID":62711,"ELEMENT_SET_NO":999,"REV_AT_EPOCH":6554,"BSTAR":0.00080459693,"MEAN_MOTION_DOT":0.00010618,"MEAN_MOTION_DDOT":0},{"OBJECT_NAME":"LEMUR-2-MYNAMEISJEFF","OBJECT_ID":"2025-009DH","EPOCH":"2026-03-28T22:37:50.511072","MEAN_MOTION":15.02453154,"ECCENTRICITY":0.00051474,"INCLINATION":97.7314,"RA_OF_ASC_NODE":171.1576,"ARG_OF_PERICENTER":97.7195,"MEAN_ANOMALY":262.4615,"EPHEMERIS_TYPE":0,"CLASSIFICATION_TYPE":"U","NORAD_CAT_ID":62712,"ELEMENT_SET_NO":999,"REV_AT_EPOCH":6557,"BSTAR":0.00082092378,"MEAN_MOTION_DOT":0.00010839,"MEAN_MOTION_DDOT":0},{"OBJECT_NAME":"LEMUR-2-LEIA-PHILIP","OBJECT_ID":"2025-052AN","EPOCH":"2026-03-28T22:27:14.791968","MEAN_MOTION":14.96877828,"ECCENTRICITY":0.00050163,"INCLINATION":97.6936,"RA_OF_ASC_NODE":341.2157,"ARG_OF_PERICENTER":119.9333,"MEAN_ANOMALY":240.2388,"EPHEMERIS_TYPE":0,"CLASSIFICATION_TYPE":"U","NORAD_CAT_ID":63246,"ELEMENT_SET_NO":999,"REV_AT_EPOCH":5666,"BSTAR":0.00052788411,"MEAN_MOTION_DOT":6.001e-5,"MEAN_MOTION_DDOT":0},{"OBJECT_NAME":"LEMUR-2-LIA-MARTIN","OBJECT_ID":"2025-052AQ","EPOCH":"2026-03-28T22:54:55.741248","MEAN_MOTION":14.97032048,"ECCENTRICITY":0.00043276,"INCLINATION":97.6982,"RA_OF_ASC_NODE":341.6169,"ARG_OF_PERICENTER":93.0053,"MEAN_ANOMALY":267.1664,"EPHEMERIS_TYPE":0,"CLASSIFICATION_TYPE":"U","NORAD_CAT_ID":63248,"ELEMENT_SET_NO":999,"REV_AT_EPOCH":5667,"BSTAR":0.00053038973,"MEAN_MOTION_DOT":6.054e-5,"MEAN_MOTION_DDOT":0},{"OBJECT_NAME":"LEMUR-2-DELOITTE-1","OBJECT_ID":"2025-052BB","EPOCH":"2026-03-28T15:45:41.764032","MEAN_MOTION":14.96977014,"ECCENTRICITY":0.0002776,"INCLINATION":97.7019,"RA_OF_ASC_NODE":341.6412,"ARG_OF_PERICENTER":60.0868,"MEAN_ANOMALY":300.0629,"EPHEMERIS_TYPE":0,"CLASSIFICATION_TYPE":"U","NORAD_CAT_ID":63259,"ELEMENT_SET_NO":999,"REV_AT_EPOCH":5664,"BSTAR":0.00049936,"MEAN_MOTION_DOT":5.687e-5,"MEAN_MOTION_DDOT":0},{"OBJECT_NAME":"LEMUR-2-EMERSONROSE","OBJECT_ID":"2025-052BD","EPOCH":"2026-03-28T15:28:05.161152","MEAN_MOTION":14.98444368,"ECCENTRICITY":0.000138,"INCLINATION":97.6984,"RA_OF_ASC_NODE":342.0238,"ARG_OF_PERICENTER":52.2902,"MEAN_ANOMALY":307.8445,"EPHEMERIS_TYPE":0,"CLASSIFICATION_TYPE":"U","NORAD_CAT_ID":63261,"ELEMENT_SET_NO":999,"REV_AT_EPOCH":5667,"BSTAR":0.00047111,"MEAN_MOTION_DOT":5.57e-5,"MEAN_MOTION_DDOT":0},{"OBJECT_NAME":"LEMUR-2-MARACHE-FRAN","OBJECT_ID":"2025-052BE","EPOCH":"2026-03-28T15:59:08.606112","MEAN_MOTION":14.99183441,"ECCENTRICITY":0.0001746,"INCLINATION":97.7012,"RA_OF_ASC_NODE":342.2608,"ARG_OF_PERICENTER":20.9061,"MEAN_ANOMALY":339.2233,"EPHEMERIS_TYPE":0,"CLASSIFICATION_TYPE":"U","NORAD_CAT_ID":63262,"ELEMENT_SET_NO":999,"REV_AT_EPOCH":5669,"BSTAR":0.00061168,"MEAN_MOTION_DOT":7.392e-5,"MEAN_MOTION_DDOT":0},{"OBJECT_NAME":"LEMUR-2-THEFALCONER","OBJECT_ID":"2025-052BG","EPOCH":"2026-03-28T22:32:33.696096","MEAN_MOTION":14.96739301,"ECCENTRICITY":4.252e-5,"INCLINATION":97.6961,"RA_OF_ASC_NODE":341.6256,"ARG_OF_PERICENTER":313.6583,"MEAN_ANOMALY":46.4603,"EPHEMERIS_TYPE":0,"CLASSIFICATION_TYPE":"U","NORAD_CAT_ID":63264,"ELEMENT_SET_NO":999,"REV_AT_EPOCH":5668,"BSTAR":0.00047986636,"MEAN_MOTION_DOT":5.429e-5,"MEAN_MOTION_DDOT":0},{"OBJECT_NAME":"LEMUR-2-UNTITLED-SC","OBJECT_ID":"2025-061A","EPOCH":"2026-03-28T21:01:06.585888","MEAN_MOTION":15.12868499,"ECCENTRICITY":0.00189463,"INCLINATION":97.5574,"RA_OF_ASC_NODE":63.8896,"ARG_OF_PERICENTER":176.6233,"MEAN_ANOMALY":183.5129,"EPHEMERIS_TYPE":0,"CLASSIFICATION_TYPE":"U","NORAD_CAT_ID":63351,"ELEMENT_SET_NO":999,"REV_AT_EPOCH":5544,"BSTAR":0.00030307436,"MEAN_MOTION_DOT":5.287e-5,"MEAN_MOTION_DDOT":0},{"OBJECT_NAME":"LEMUR-2-ESPERANZA","OBJECT_ID":"2025-061B","EPOCH":"2026-03-28T22:10:13.508544","MEAN_MOTION":15.12947484,"ECCENTRICITY":0.00185741,"INCLINATION":97.5584,"RA_OF_ASC_NODE":64.0125,"ARG_OF_PERICENTER":175.5155,"MEAN_ANOMALY":184.6246,"EPHEMERIS_TYPE":0,"CLASSIFICATION_TYPE":"U","NORAD_CAT_ID":63352,"ELEMENT_SET_NO":999,"REV_AT_EPOCH":5545,"BSTAR":0.00027454282,"MEAN_MOTION_DOT":4.793e-5,"MEAN_MOTION_DDOT":0},{"OBJECT_NAME":"LEMUR-2-KREMPEL-BRO2","OBJECT_ID":"2025-061C","EPOCH":"2026-03-28T21:46:32.414304","MEAN_MOTION":15.13372047,"ECCENTRICITY":0.00197293,"INCLINATION":97.563,"RA_OF_ASC_NODE":64.4275,"ARG_OF_PERICENTER":168.5686,"MEAN_ANOMALY":191.5997,"EPHEMERIS_TYPE":0,"CLASSIFICATION_TYPE":"U","NORAD_CAT_ID":63353,"ELEMENT_SET_NO":999,"REV_AT_EPOCH":5546,"BSTAR":0.0002613569,"MEAN_MOTION_DOT":4.617e-5,"MEAN_MOTION_DDOT":0},{"OBJECT_NAME":"LEMUR-2-THERMORAPTOR","OBJECT_ID":"2025-061D","EPOCH":"2026-03-28T21:26:11.249664","MEAN_MOTION":15.13434714,"ECCENTRICITY":0.0019482,"INCLINATION":97.5635,"RA_OF_ASC_NODE":64.4746,"ARG_OF_PERICENTER":167.6661,"MEAN_ANOMALY":192.5051,"EPHEMERIS_TYPE":0,"CLASSIFICATION_TYPE":"U","NORAD_CAT_ID":63354,"ELEMENT_SET_NO":999,"REV_AT_EPOCH":5546,"BSTAR":0.00030187235,"MEAN_MOTION_DOT":5.352e-5,"MEAN_MOTION_DDOT":0},{"OBJECT_NAME":"LEMUR-2-NEUROSPICY","OBJECT_ID":"2025-061E","EPOCH":"2026-03-28T22:29:15.226656","MEAN_MOTION":15.13550899,"ECCENTRICITY":0.0017211,"INCLINATION":97.5564,"RA_OF_ASC_NODE":64.2069,"ARG_OF_PERICENTER":170.5554,"MEAN_ANOMALY":189.6004,"EPHEMERIS_TYPE":0,"CLASSIFICATION_TYPE":"U","NORAD_CAT_ID":63355,"ELEMENT_SET_NO":999,"REV_AT_EPOCH":5547,"BSTAR":0.00030698094,"MEAN_MOTION_DOT":5.456e-5,"MEAN_MOTION_DDOT":0},{"OBJECT_NAME":"LEMUR-2-TILLINFINITY","OBJECT_ID":"2025-061F","EPOCH":"2026-03-28T20:54:21.957408","MEAN_MOTION":15.14129127,"ECCENTRICITY":0.00187737,"INCLINATION":97.5548,"RA_OF_ASC_NODE":64.3758,"ARG_OF_PERICENTER":159.623,"MEAN_ANOMALY":200.5755,"EPHEMERIS_TYPE":0,"CLASSIFICATION_TYPE":"U","NORAD_CAT_ID":63356,"ELEMENT_SET_NO":999,"REV_AT_EPOCH":5548,"BSTAR":0.00029861951,"MEAN_MOTION_DOT":5.397e-5,"MEAN_MOTION_DDOT":0}]
