LEMUR-2-ARIANNA         
1 62699U 25009CU  26087.80608687  .00009372  00000+0  73418-3 0  9990
2 62699  97.6943 169.9352 0004594 113.0607 247.1102 15.01210253 65498
LEMUR-2-ALISIA          
1 62706U 25009DB  26087.86628398  .00009601  00000+0  74671-3 0  9993
2 62706  97.6964 170.6652 0006113 120.0559 240.1272 15.01469655 88101
LEMUR-2-ROUNDTRIPPER    
1 62711U 25009DG  26087.74468126  .00010618  00000+0  80460-3 0  9990
2 62711  97.7273 170.6266 0005803  73.7312 286.4551 15.02436505 65543
LEMUR-2-MYNAMEISJEFF    
1 62712U 25009DH  26087.94294573  .00010839  00000+0  82092-3 0  9994
2 62712  97.7314 171.1576 0005147  97.7195 262.4615 15.02453154 65573
LEMUR-2-LEIA-PHILIP     
1 63246U 25052AN  26087.93558787  .00006001  00000+0  52788-3 0  9999
2 63246  97.6936 341.2157 0005016 119.9333 240.2388 14.96877828 56667
LEMUR-2-LIA-MARTIN      
1 63248U 25052AQ  26087.95481182  .00006054  00000+0  53039-3 0  9995
2 63248  97.6982 341.6169 0004327  93.0053 267.1664 14.97032048 56676
LEMUR-2-DELOITTE-1      
1 63259U 25052BB  26087.65673338  .00005687  00000+0  49936-3 0  9992
2 63259  97.7019 341.6412 0002776  60.0868 300.0629 14.96977014 56640
LEMUR-2-EMERSONROSE     
1 63261U 25052BD  26087.64450418  .00005570  00000+0  47111-3 0  9990
2 63261  97.6984 342.0238 0001380  52.2902 307.8445 14.98444368 56673
LEMUR-2-MARACHE-FRAN    
1 63262U 25052BE  26087.66607183  .00007392  00000+0  61168-3 0  9998
2 63262  97.7012 342.2608 0001746  20.9061 339.2233 14.99183441 56693
LEMUR-2-THEFALCONER     
1 63264U 25052BG  26087.93927889  .00005429  00000+0  47987-3 0  9990
2 63264  97.6961 341.6256 0000425 313.6583  46.4603 14.96739301 56689
LEMUR-2-UNTITLED-SC     
1 63351U 25061A   26087.87577067  .00005287  00000+0  30307-3 0  9999
2 63351  97.5574  63.8896 0018946 176.6233 183.5129 15.12868499 55443
LEMUR-2-ESPERANZA       
1 63352U 25061B   26087.92376746  .00004793  00000+0  27454-3 0  9997
2 63352  97.5584  64.0125 0018574 175.5155 184.6246 15.12947484 55456
LEMUR-2-KREMPEL-BRO2    
1 63353U 25061C   26087.90731961  .00004617  00000+0  26136-3 0  9991
2 63353  97.5630  64.4275 0019729 168.5686 191.5997 15.13372047 55462
LEMUR-2-THERMORAPTOR    
1 63354U 25061D   26087.89318576  .00005352  00000+0  30187-3 0  9991
2 63354  97.5635  64.4746 0019482 167.6661 192.5051 15.13434714 55462
LEMUR-2-NEUROSPICY      
1 63355U 25061E   26087.93698179  .00005456  00000+0  30698-3 0  9999
2 63355  97.5564  64.2069 0017211 170.5554 189.6004 15.13550899 55471
LEMUR-2-TILLINFINITY    
1 63356U 25061F   26087.87108747  .00005397  00000+0  29862-3 0  9995
2 63356  97.5548  64.3758 0018773 159.6230 200.5755 15.14129127 55487
